{
"type": "FeatureCollection",
"name": "power_plants",
"crs": { "type": "name", "properties": { "name": "urn:ogc:def:crs:OGC:1.3:CRS84" } },
"features": [
{ "type": "Feature", "properties": { "company": "Calon Energy", "name": "Severn Power Ltd", "technology": "Fossil Fuel", "type": "CCGT", "fuel": "Natural Gas", "capacity": 850.0, "country": "Wales" }, "geometry": { "type": "Point", "coordinates": [ -2.964279456141731, 51.559966987698409 ] } },
{ "type": "Feature", "properties": { "company": "Co-owned by SSE Group and Cheung Kong Infrastructure Ltd", "name": "Seabank Power Ltd", "technology": "Fossil Fuel", "type": "CCGT", "fuel": "Natural Gas", "capacity": 1234.0, "country": "England" }, "geometry": { "type": "Point", "coordinates": [ -2.813792074789959, 51.351986688148358 ] } },
{ "type": "Feature", "properties": { "company": "EDF Energy", "name": "Hartlepool", "technology": "Nuclear", "type": "AGR", "fuel": "Nuclear", "capacity": 1185.0, "country": "England" }, "geometry": { "type": "Point", "coordinates": [ -1.199118999759222, 54.672123282383133 ] } },
{ "type": "Feature", "properties": { "company": "EDF Energy", "name": "Heysham 1", "technology": "Nuclear", "type": "AGR", "fuel": "Nuclear", "capacity": 1060.0, "country": "England" }, "geometry": { "type": "Point", "coordinates": [ -2.894939847363858, 54.045673307283316 ] } },
{ "type": "Feature", "properties": { "company": "EDF Energy", "name": "Heysham 2", "technology": "Nuclear", "type": "AGR", "fuel": "Nuclear", "capacity": 1240.0, "country": "England" }, "geometry": { "type": "Point", "coordinates": [ -2.894939847363858, 54.045673307283316 ] } },
{ "type": "Feature", "properties": { "company": "EDF Energy", "name": "Torness", "technology": "Nuclear", "type": "AGR", "fuel": "Nuclear", "capacity": 1200.0, "country": "Scotland" }, "geometry": { "type": "Point", "coordinates": [ -4.895391521517535, 55.722881320734814 ] } },
{ "type": "Feature", "properties": { "company": "EDF Energy", "name": "Sizewell B", "technology": "Nuclear", "type": "PWR", "fuel": "Nuclear", "capacity": 1198.0, "country": "England" }, "geometry": { "type": "Point", "coordinates": [ 1.618660901315632, 52.186463383931397 ] } },
{ "type": "Feature", "properties": { "company": "EDF Energy", "name": "NNG", "technology": "Wind", "type": "Offshore", "fuel": "Wind", "capacity": 448.0, "country": "Scotland" }, "geometry": { "type": "Point", "coordinates": [ -2.249504381153594, 56.268096130551505 ] } },
{ "type": "Feature", "properties": { "company": "EDF Energy", "name": "Fallago Rig", "technology": "Wind", "type": "Onshore", "fuel": "Wind", "capacity": 144.0, "country": "Scotland" }, "geometry": { "type": "Point", "coordinates": [ -2.688027687587587, 55.831307531436373 ] } },
{ "type": "Feature", "properties": { "company": "EDF Energy", "name": "Dorenell", "technology": "Wind", "type": "Onshore", "fuel": "Wind", "capacity": 177.0, "country": "Scotland" }, "geometry": { "type": "Point", "coordinates": [ -3.131680915723892, 57.350899489260719 ] } },
{ "type": "Feature", "properties": { "company": "Energy Capital Partners", "name": "Saltend Power Station", "technology": "Fossil Fuel", "type": "CCGT", "fuel": "Natural Gas", "capacity": 1200.0, "country": "England" }, "geometry": { "type": "Point", "coordinates": [ -0.336683608730277, 53.744249008939519 ] } },
{ "type": "Feature", "properties": { "company": "Energy Capital Partners", "name": "Indian Queens Power Ltd", "technology": "Fossil Fuel", "type": "Single cycle", "fuel": "Diesel/Gas Oil", "capacity": 140.0, "country": "England" }, "geometry": { "type": "Point", "coordinates": [ -4.931124960864256, 50.388378550711877 ] } },
{ "type": "Feature", "properties": { "company": "Engie Power", "name": "Ffestiniog Power Station", "technology": "Pumped Hydro", "type": "Pumped hydro", "fuel": "Pumped hydro", "capacity": 360.0, "country": "Wales" }, "geometry": { "type": "Point", "coordinates": [ -3.969014306623279, 52.980614650041268 ] } },
{ "type": "Feature", "properties": { "company": "Engie Power", "name": "Dinorwig Power Station", "technology": "Pumped Hydro", "type": "Pumped hydro", "fuel": "Pumped hydro", "capacity": 1800.0, "country": "Wales" }, "geometry": { "type": "Point", "coordinates": [ -4.102339896150201, 53.118586587414519 ] } },
{ "type": "Feature", "properties": { "company": "EPUKi", "name": "Lynemouth Power Limited", "technology": "Bioenergy", "type": "Bioenergy", "fuel": "Biomass", "capacity": 420.0, "country": "England" }, "geometry": { "type": "Point", "coordinates": [ -1.532504001976289, 55.206721733259343 ] } },
{ "type": "Feature", "properties": { "company": "EPUKi", "name": "EP SHB LTD", "technology": "Fossil Fuel", "type": "CCGT", "fuel": "Natural Gas", "capacity": 1365.0, "country": "England" }, "geometry": { "type": "Point", "coordinates": [ -0.182684258155643, 53.565269824366027 ] } },
{ "type": "Feature", "properties": { "company": "EPUKi", "name": "EP Langage Ltd", "technology": "Fossil Fuel", "type": "CCGT", "fuel": "Natural Gas", "capacity": 905.0, "country": "England" }, "geometry": { "type": "Point", "coordinates": [ -4.011757816431766, 50.388217464701043 ] } },
{ "type": "Feature", "properties": { "company": "ESB", "name": "Corby Power Station", "technology": "Fossil Fuel", "type": "CCGT", "fuel": "Natural Gas", "capacity": 407.0, "country": "England" }, "geometry": { "type": "Point", "coordinates": [ -0.70457061805249, 52.293409419621504 ] } },
{ "type": "Feature", "properties": { "company": "ESB", "name": "Carrington Power", "technology": "Fossil Fuel", "type": "CCGT", "fuel": "Natural Gas", "capacity": 884.0, "country": "England" }, "geometry": { "type": "Point", "coordinates": [ -2.40353927475225, 53.433432619827528 ] } },
{ "type": "Feature", "properties": { "company": "Fred Olsen Renewables", "name": "Crystal Rig II", "technology": "Wind", "type": "Onshore", "fuel": "Wind", "capacity": 138.0, "country": "Scotland" }, "geometry": { "type": "Point", "coordinates": [ -2.529311373538807, 55.89948068296659 ] } },
{ "type": "Feature", "properties": { "company": "Greencoat Capital", "name": "South Kyle", "technology": "Wind", "type": "Onshore", "fuel": "Wind", "capacity": 240.0, "country": "Scotland" }, "geometry": { "type": "Point", "coordinates": [ -4.286125803482768, 55.31110320622318 ] } },
{ "type": "Feature", "properties": { "company": "Intergen", "name": "Rocksavage Power Company Ltd", "technology": "Fossil Fuel", "type": "CCGT", "fuel": "Natural Gas", "capacity": 810.0, "country": "England" }, "geometry": { "type": "Point", "coordinates": [ -2.71537053995543, 53.293759462764982 ] } },
{ "type": "Feature", "properties": { "company": "Intergen", "name": "Coryton Energy Company Ltd", "technology": "Fossil Fuel", "type": "CCGT", "fuel": "Natural Gas", "capacity": 800.0, "country": "England" }, "geometry": { "type": "Point", "coordinates": [ 0.377336120785815, 51.484018981403466 ] } },
{ "type": "Feature", "properties": { "company": "Intergen", "name": "Spalding Energy Company Ltd", "technology": "Fossil Fuel", "type": "CCGT", "fuel": "Natural Gas", "capacity": 950.0, "country": "England" }, "geometry": { "type": "Point", "coordinates": [ -0.149662796325188, 52.765361408614631 ] } },
{ "type": "Feature", "properties": { "company": "Intergen", "name": "Spalding Expansion OCGT", "technology": "Fossil Fuel", "type": "Single cycle", "fuel": "Natural Gas", "capacity": 300.0, "country": "England" }, "geometry": { "type": "Point", "coordinates": [ -0.136825843626672, 52.807381087659664 ] } },
{ "type": "Feature", "properties": { "company": "Marchwood Power", "name": "Marchwood Power", "technology": "Fossil Fuel", "type": "CCGT", "fuel": "Natural Gas", "capacity": 898.0, "country": "England" }, "geometry": { "type": "Point", "coordinates": [ -1.457434382311604, 50.871562720461206 ] } },
{ "type": "Feature", "properties": { "company": "Moray Offshore Windfarm (East) Ltd", "name": "Moray Offshore Windfarm East Limited", "technology": "Wind", "type": "Offshore", "fuel": "Wind", "capacity": 950.0, "country": "Scotland" }, "geometry": { "type": "Point", "coordinates": [ -2.698505962704924, 58.167092922654703 ] } },
{ "type": "Feature", "properties": { "company": "Moray Offshore Windfarm (East) Ltd", "name": "Moray Offshore Windfarm West Limited", "technology": "Wind", "type": "Offshore", "fuel": "Wind", "capacity": 882.0, "country": "Scotland" }, "geometry": { "type": "Point", "coordinates": [ -3.006836384124789, 58.097198374044837 ] } },
{ "type": "Feature", "properties": { "company": "Orsted", "name": "Gunfleet Sands 01", "technology": "Wind", "type": "Offshore", "fuel": "Wind", "capacity": 172.8, "country": "England" }, "geometry": { "type": "Point", "coordinates": [ 1.218012008726389, 51.730817943483764 ] } },
{ "type": "Feature", "properties": { "company": "Orsted", "name": "Walney 01", "technology": "Wind", "type": "Offshore", "fuel": "Wind", "capacity": 368.0, "country": "England" }, "geometry": { "type": "Point", "coordinates": [ -3.515788862345326, 54.039448620794843 ] } },
{ "type": "Feature", "properties": { "company": "Orsted", "name": "Lincs", "technology": "Wind", "type": "Offshore", "fuel": "Wind", "capacity": 270.0, "country": "England" }, "geometry": { "type": "Point", "coordinates": [ 0.498077002161916, 53.184172438701815 ] } },
{ "type": "Feature", "properties": { "company": "Orsted", "name": "West of Duddon Sands", "technology": "Wind", "type": "Offshore", "fuel": "Wind", "capacity": 389.0, "country": "England" }, "geometry": { "type": "Point", "coordinates": [ -3.462007068918209, 53.985149825359152 ] } },
{ "type": "Feature", "properties": { "company": "Orsted", "name": "Westermost Rough", "technology": "Wind", "type": "Offshore", "fuel": "Wind", "capacity": 210.0, "country": "England" }, "geometry": { "type": "Point", "coordinates": [ 0.14998923731416, 53.805997273108808 ] } },
{ "type": "Feature", "properties": { "company": "Orsted", "name": "Burbo Extension", "technology": "Wind", "type": "Offshore", "fuel": "Wind", "capacity": 259.0, "country": "England" }, "geometry": { "type": "Point", "coordinates": [ -3.270000016101015, 53.479991902270193 ] } },
{ "type": "Feature", "properties": { "company": "Orsted", "name": "Walney 03", "technology": "Wind", "type": "Offshore", "fuel": "Wind", "capacity": 330.0, "country": "England" }, "geometry": { "type": "Point", "coordinates": [ -3.606004125687893, 54.081998050514507 ] } },
{ "type": "Feature", "properties": { "company": "Orsted", "name": "Race Bank", "technology": "Wind", "type": "Offshore", "fuel": "Wind", "capacity": 573.0, "country": "England" }, "geometry": { "type": "Point", "coordinates": [ 0.589174375624372, 53.135974227222789 ] } },
{ "type": "Feature", "properties": { "company": "Orsted", "name": "Walney 04", "technology": "Wind", "type": "Offshore", "fuel": "Wind", "capacity": 329.0, "country": "England" }, "geometry": { "type": "Point", "coordinates": [ -3.223265864463922, 54.065709915366078 ] } },
{ "type": "Feature", "properties": { "company": "Orsted", "name": "Hornsea 01", "technology": "Wind", "type": "Offshore", "fuel": "Wind", "capacity": 1218.0, "country": "England" }, "geometry": { "type": "Point", "coordinates": [ 1.420739502846865, 53.681541663550469 ] } },
{ "type": "Feature", "properties": { "company": "Orsted", "name": "Gunfleet Sands 02", "technology": "Wind", "type": "Offshore", "fuel": "Wind", "capacity": 172.8, "country": "England" }, "geometry": { "type": "Point", "coordinates": [ 1.245924730864426, 51.727189344092245 ] } },
{ "type": "Feature", "properties": { "company": "Orsted", "name": "Walney 02", "technology": "Wind", "type": "Offshore", "fuel": "Wind", "capacity": 368.0, "country": "England" }, "geometry": { "type": "Point", "coordinates": [ -3.515788862345326, 54.039448620794843 ] } },
{ "type": "Feature", "properties": { "company": "Orsted", "name": "Hornsea 02", "technology": "Wind", "type": "Offshore", "fuel": "Wind", "capacity": 1386.0, "country": "England" }, "geometry": { "type": "Point", "coordinates": [ 1.405626432645703, 53.681972795075971 ] } },
{ "type": "Feature", "properties": { "company": "Part of Drax Group", "name": "Drax Power Station Biomass Units", "technology": "Bioenergy", "type": "Bioenergy", "fuel": "Biomass", "capacity": 2580.0, "country": "England" }, "geometry": { "type": "Point", "coordinates": [ -0.991096785416903, 53.735588909884264 ] } },
{ "type": "Feature", "properties": { "company": "Part of Drax Group", "name": "Cruachan", "technology": "Pumped Hydro", "type": "Pumped hydro", "fuel": "Pumped hydro", "capacity": 440.0, "country": "Scotland" }, "geometry": { "type": "Point", "coordinates": [ -5.121182201541301, 56.305378505180073 ] } },
{ "type": "Feature", "properties": { "company": "RES Group", "name": "Beinneun Wind Farm", "technology": "Wind", "type": "Onshore", "fuel": "Wind", "capacity": 108.8, "country": "Scotland" }, "geometry": { "type": "Point", "coordinates": [ -4.965481047078889, 57.095605803530056 ] } },
{ "type": "Feature", "properties": { "company": "River Nene", "name": "Peterborough Power Station", "technology": "Fossil Fuel", "type": "Single cycle", "fuel": "Natural Gas", "capacity": 245.0, "country": "England" }, "geometry": { "type": "Point", "coordinates": [ -0.254133730265108, 52.57788721157668 ] } },
{ "type": "Feature", "properties": { "company": "River Nene", "name": "Heartlands", "technology": "Fossil Fuel", "type": "Single cycle", "fuel": "Natural Gas", "capacity": 100.0, "country": "England" }, "geometry": { "type": "Point", "coordinates": [ -1.809459742995828, 52.509772741403751 ] } },
{ "type": "Feature", "properties": { "company": "RWE Npower", "name": "Little Barford", "technology": "Fossil Fuel", "type": "CCGT", "fuel": "Natural Gas", "capacity": 735.0, "country": "England" }, "geometry": { "type": "Point", "coordinates": [ -0.259618932879026, 52.196931854650821 ] } },
{ "type": "Feature", "properties": { "company": "RWE Npower", "name": "Kings Lynn", "technology": "Fossil Fuel", "type": "CCGT", "fuel": "Natural Gas", "capacity": 395.0, "country": "England" }, "geometry": { "type": "Point", "coordinates": [ 0.385329824230068, 52.727753878530017 ] } },
{ "type": "Feature", "properties": { "company": "RWE Npower", "name": "Didcot B", "technology": "Fossil Fuel", "type": "CCGT", "fuel": "Natural Gas", "capacity": 1450.0, "country": "England" }, "geometry": { "type": "Point", "coordinates": [ -1.264977438855041, 51.536490329072933 ] } },
{ "type": "Feature", "properties": { "company": "RWE Npower", "name": "Great Yarmouth", "technology": "Fossil Fuel", "type": "CCGT", "fuel": "Natural Gas", "capacity": 420.0, "country": "England" }, "geometry": { "type": "Point", "coordinates": [ 1.728484221860693, 52.608716766808229 ] } },
{ "type": "Feature", "properties": { "company": "RWE Npower", "name": "Staythorpe", "technology": "Fossil Fuel", "type": "CCGT", "fuel": "Natural Gas", "capacity": 1828.0, "country": "England" }, "geometry": { "type": "Point", "coordinates": [ -0.87458642394189, 53.053315301165348 ] } },
{ "type": "Feature", "properties": { "company": "RWE Npower", "name": "Pembroke", "technology": "Fossil Fuel", "type": "CCGT", "fuel": "Natural Gas", "capacity": 2199.0, "country": "Wales" }, "geometry": { "type": "Point", "coordinates": [ -4.989051566598901, 51.661927025494769 ] } },
{ "type": "Feature", "properties": { "company": "RWE Npower", "name": "Didcot GT", "technology": "Fossil Fuel", "type": "Single cycle", "fuel": "Diesel/Gas Oil", "capacity": 100.0, "country": "England" }, "geometry": { "type": "Point", "coordinates": [ -1.264977438855041, 51.536490329072933 ] } },
{ "type": "Feature", "properties": { "company": "RWE Npower", "name": "Cowes", "technology": "Fossil Fuel", "type": "Single cycle", "fuel": "Diesel/Gas Oil", "capacity": 140.0, "country": "England" }, "geometry": { "type": "Point", "coordinates": [ -1.31443663873039, 50.739580760812508 ] } },
{ "type": "Feature", "properties": { "company": "RWE Npower", "name": "London Array", "technology": "Wind", "type": "Offshore", "fuel": "Wind", "capacity": 630.0, "country": "England" }, "geometry": { "type": "Point", "coordinates": [ 1.495831637282532, 51.621679300913954 ] } },
{ "type": "Feature", "properties": { "company": "RWE Npower", "name": "Gwynt y Mor", "technology": "Wind", "type": "Offshore", "fuel": "Wind", "capacity": 576.0, "country": "Wales" }, "geometry": { "type": "Point", "coordinates": [ -3.626648631936937, 53.454003441843525 ] } },
{ "type": "Feature", "properties": { "company": "RWE Npower", "name": "Humber Gateway", "technology": "Wind", "type": "Offshore", "fuel": "Wind", "capacity": 219.0, "country": "England" }, "geometry": { "type": "Point", "coordinates": [ -0.061408176922219, 53.581497996313182 ] } },
{ "type": "Feature", "properties": { "company": "RWE Npower", "name": "Galloper", "technology": "Wind", "type": "Offshore", "fuel": "Wind", "capacity": 352.8, "country": "England" }, "geometry": { "type": "Point", "coordinates": [ 1.603485855845761, 52.204549215453078 ] } },
{ "type": "Feature", "properties": { "company": "RWE Npower", "name": "Rampion", "technology": "Wind", "type": "Offshore", "fuel": "Wind", "capacity": 400.2, "country": "England" }, "geometry": { "type": "Point", "coordinates": [ -0.229801216139965, 50.741164930212243 ] } },
{ "type": "Feature", "properties": { "company": "RWE Npower", "name": "Triton Knoll", "technology": "Wind", "type": "Offshore", "fuel": "Wind", "capacity": 857.0, "country": "England" }, "geometry": { "type": "Point", "coordinates": [ -0.107145755772307, 53.583641869362005 ] } },
{ "type": "Feature", "properties": { "company": "Scira Offshore Energy", "name": "Sheringham Shoal BMU 1", "technology": "Wind", "type": "Offshore", "fuel": "Wind", "capacity": 158.0, "country": "England" }, "geometry": { "type": "Point", "coordinates": [ 1.147921863951549, 53.135318591811256 ] } },
{ "type": "Feature", "properties": { "company": "Scira Offshore Energy", "name": "Sheringham Shoal BMU 2", "technology": "Wind", "type": "Offshore", "fuel": "Wind", "capacity": 158.0, "country": "England" }, "geometry": { "type": "Point", "coordinates": [ 1.147921863951549, 53.135318591811256 ] } },
{ "type": "Feature", "properties": { "company": "Scira Offshore Energy", "name": "Dudgeon BMU 1", "technology": "Wind", "type": "Offshore", "fuel": "Wind", "capacity": 108.0, "country": "England" }, "geometry": { "type": "Point", "coordinates": [ 0.613468227885712, 53.117460061907245 ] } },
{ "type": "Feature", "properties": { "company": "Scira Offshore Energy", "name": "Dudgeon BMU 3", "technology": "Wind", "type": "Offshore", "fuel": "Wind", "capacity": 102.0, "country": "England" }, "geometry": { "type": "Point", "coordinates": [ 0.613468227885712, 53.117460061907245 ] } },
{ "type": "Feature", "properties": { "company": "Scira Offshore Energy", "name": "Dudgeon BMU 4", "technology": "Wind", "type": "Offshore", "fuel": "Wind", "capacity": 102.0, "country": "England" }, "geometry": { "type": "Point", "coordinates": [ 0.613468227885712, 53.117460061907245 ] } },
{ "type": "Feature", "properties": { "company": "Scottish Power", "name": "East Anglia One", "technology": "Wind", "type": "Offshore", "fuel": "Wind", "capacity": 714.0, "country": "England" }, "geometry": { "type": "Point", "coordinates": [ 2.249319255951356, 52.23128222012307 ] } },
{ "type": "Feature", "properties": { "company": "Scottish Power", "name": "Black Law I", "technology": "Wind", "type": "Onshore", "fuel": "Wind", "capacity": 124.2, "country": "Scotland" }, "geometry": { "type": "Point", "coordinates": [ -3.738902270742754, 55.766938574003397 ] } },
{ "type": "Feature", "properties": { "company": "Scottish Power", "name": "Whitelee I", "technology": "Wind", "type": "Onshore", "fuel": "Wind", "capacity": 322.0, "country": "Scotland" }, "geometry": { "type": "Point", "coordinates": [ -4.279060578358626, 55.681206877886574 ] } },
{ "type": "Feature", "properties": { "company": "Scottish Power", "name": "Arecleoch", "technology": "Wind", "type": "Onshore", "fuel": "Wind", "capacity": 120.0, "country": "Scotland" }, "geometry": { "type": "Point", "coordinates": [ -4.797053507264143, 55.068784972058218 ] } },
{ "type": "Feature", "properties": { "company": "Scottish Power", "name": "Whitelee II", "technology": "Wind", "type": "Onshore", "fuel": "Wind", "capacity": 217.02, "country": "Scotland" }, "geometry": { "type": "Point", "coordinates": [ -4.31763040882373, 55.639427927026716 ] } },
{ "type": "Feature", "properties": { "company": "Scottish Power", "name": "Harestanes", "technology": "Wind", "type": "Onshore", "fuel": "Wind", "capacity": 136.0, "country": "Scotland" }, "geometry": { "type": "Point", "coordinates": [ -3.574197586877193, 55.239029213040126 ] } },
{ "type": "Feature", "properties": { "company": "Scottish Power", "name": "Kilgallioch", "technology": "Wind", "type": "Onshore", "fuel": "Wind", "capacity": 239.0, "country": "Scotland" }, "geometry": { "type": "Point", "coordinates": [ -4.773281991259178, 55.064834260302462 ] } },
{ "type": "Feature", "properties": { "company": "Sembcorp Utilities", "name": "Wilton International", "technology": "Fossil Fuel", "type": "Conventional steam", "fuel": "Natural Gas", "capacity": 120.0, "country": "England" }, "geometry": { "type": "Point", "coordinates": [ -1.100628891225506, 54.548138449923727 ] } },
{ "type": "Feature", "properties": { "company": "SSE Group", "name": "Peterhead", "technology": "Fossil Fuel", "type": "CCGT", "fuel": "Natural Gas", "capacity": 1180.0, "country": "Scotland" }, "geometry": { "type": "Point", "coordinates": [ -1.788374849821349, 57.477912366872495 ] } },
{ "type": "Feature", "properties": { "company": "SSE Group", "name": "Keadby", "technology": "Fossil Fuel", "type": "CCGT", "fuel": "Natural Gas", "capacity": 735.0, "country": "England" }, "geometry": { "type": "Point", "coordinates": [ -0.743172635407545, 53.595006927755207 ] } },
{ "type": "Feature", "properties": { "company": "SSE Group", "name": "Medway", "technology": "Fossil Fuel", "type": "CCGT", "fuel": "Natural Gas", "capacity": 755.0, "country": "England" }, "geometry": { "type": "Point", "coordinates": [ 0.687701601910857, 51.434233423587663 ] } },
{ "type": "Feature", "properties": { "company": "SSE Group", "name": "Keadby 2", "technology": "Fossil Fuel", "type": "CCGT", "fuel": "Natural Gas", "capacity": 840.0, "country": "England" }, "geometry": { "type": "Point", "coordinates": [ -0.757255903084193, 53.595495582457403 ] } },
{ "type": "Feature", "properties": { "company": "SSE Group", "name": "Sloy", "technology": "Hydro", "type": "Large Hydro", "fuel": "Hydro", "capacity": 152.5, "country": "Scotland" }, "geometry": { "type": "Point", "coordinates": [ -4.710251380000485, 56.250213656975028 ] } },
{ "type": "Feature", "properties": { "company": "SSE Group", "name": "Glendoe Hydro Power Station", "technology": "Hydro", "type": "Large Hydro", "fuel": "Hydro", "capacity": 100.0, "country": "Scotland" }, "geometry": { "type": "Point", "coordinates": [ -4.666990958325232, 57.141481921331732 ] } },
{ "type": "Feature", "properties": { "company": "SSE Group", "name": "Foyers Pumped Storage", "technology": "Pumped hydro", "type": "Pumped hydro", "fuel": "Pumped hydro", "capacity": 300.0, "country": "Scotland" }, "geometry": { "type": "Point", "coordinates": [ -4.482800776900336, 57.261845589804047 ] } },
{ "type": "Feature", "properties": { "company": "SSE Group", "name": "Greater Gabbard", "technology": "Wind", "type": "Offshore", "fuel": "Wind", "capacity": 504.0, "country": "England" }, "geometry": { "type": "Point", "coordinates": [ 1.928420236839918, 51.917644659359851 ] } },
{ "type": "Feature", "properties": { "company": "SSE Group", "name": "Beatrice Offshore windfarm", "technology": "Wind", "type": "Offshore", "fuel": "Wind", "capacity": 588.0, "country": "Scotland" }, "geometry": { "type": "Point", "coordinates": [ -2.950157205656308, 58.088229262659091 ] } },
{ "type": "Feature", "properties": { "company": "SSE Group", "name": "Seagreen", "technology": "Wind", "type": "Offshore", "fuel": "Wind", "capacity": 1075.0, "country": "Scotland" }, "geometry": { "type": "Point", "coordinates": [ -1.724954650383247, 56.569648509342542 ] } },
{ "type": "Feature", "properties": { "company": "SSE Group", "name": "Hadyard Hill Windfarm - A,C", "technology": "Wind", "type": "Onshore", "fuel": "Wind", "capacity": 119.8, "country": "Scotland" }, "geometry": { "type": "Point", "coordinates": [ -4.720504339797622, 55.240834454459893 ] } },
{ "type": "Feature", "properties": { "company": "SSE Group", "name": "Clyde Windfarm (South)", "technology": "Wind", "type": "Onshore", "fuel": "Wind", "capacity": 128.8, "country": "Scotland" }, "geometry": { "type": "Point", "coordinates": [ -3.542734237680517, 55.441634082339981 ] } },
{ "type": "Feature", "properties": { "company": "SSE Group", "name": "Griffin Wind Farm", "technology": "Wind", "type": "Onshore", "fuel": "Wind", "capacity": 188.6, "country": "Scotland" }, "geometry": { "type": "Point", "coordinates": [ -3.733752370172479, 56.581222522433002 ] } },
{ "type": "Feature", "properties": { "company": "SSE Group", "name": "Clyde Windfarm (Central)", "technology": "Wind", "type": "Onshore", "fuel": "Wind", "capacity": 195.9, "country": "Scotland" }, "geometry": { "type": "Point", "coordinates": [ -3.544489288121865, 55.486545093105086 ] } },
{ "type": "Feature", "properties": { "company": "SSE Group", "name": "Clyde Windfarm (North)", "technology": "Wind", "type": "Onshore", "fuel": "Wind", "capacity": 197.7, "country": "Scotland" }, "geometry": { "type": "Point", "coordinates": [ -3.546249284143859, 55.531455735114747 ] } },
{ "type": "Feature", "properties": { "company": "SSE Group", "name": "Bhlaraidh Wind Farm", "technology": "Wind", "type": "Onshore", "fuel": "Wind", "capacity": 110.4, "country": "Scotland" }, "geometry": { "type": "Point", "coordinates": [ -4.679298688607716, 57.210518382327592 ] } },
{ "type": "Feature", "properties": { "company": "SSE Group", "name": "Stronelairg Wind Farm", "technology": "Wind", "type": "Onshore", "fuel": "Wind", "capacity": 227.7, "country": "Scotland" }, "geometry": { "type": "Point", "coordinates": [ -4.526369990722411, 57.126924519131002 ] } },
{ "type": "Feature", "properties": { "company": "SSE Group", "name": "Viking Wind Farm", "technology": "Wind", "type": "Onshore", "fuel": "Wind", "capacity": 443.0, "country": "Scotland" }, "geometry": { "type": "Point", "coordinates": [ -1.208428591976012, 60.339325389804799 ] } },
{ "type": "Feature", "properties": { "company": "SSE Group and Equinor", "name": "Dogger Bank A", "technology": "Wind", "type": "Offshore", "fuel": "Wind", "capacity": 520.0, "country": "England" }, "geometry": { "type": "Point", "coordinates": [ 0.64417667410433, 54.816013888467403 ] } },
{ "type": "Feature", "properties": { "company": "UK Transition Limited", "name": "West Burton CCGT", "technology": "Fossil Fuel", "type": "CCGT", "fuel": "Natural Gas", "capacity": 1332.0, "country": "England" }, "geometry": { "type": "Point", "coordinates": [ -0.809110799336707, 53.351782460808337 ] } },
{ "type": "Feature", "properties": { "company": "Uniper UK", "name": "Killingholme", "technology": "Fossil Fuel", "type": "Single cycle", "fuel": "Natural Gas", "capacity": 600.0, "country": "England" }, "geometry": { "type": "Point", "coordinates": [ -0.235138053513095, 53.661811390438054 ] } },
{ "type": "Feature", "properties": { "company": "Uniper UK", "name": "Connahs Quay", "technology": "Fossil Fuel", "type": "CCGT", "fuel": "Sour Gas", "capacity": 1380.0, "country": "Wales" }, "geometry": { "type": "Point", "coordinates": [ -3.066326179226394, 53.207267833821767 ] } },
{ "type": "Feature", "properties": { "company": "Uniper UK", "name": "Cottam Development Centre", "technology": "Fossil Fuel", "type": "CCGT", "fuel": "Natural Gas", "capacity": 445.0, "country": "England" }, "geometry": { "type": "Point", "coordinates": [ -0.946582454784099, 53.297288431712651 ] } },
{ "type": "Feature", "properties": { "company": "Uniper UK", "name": "Enfield", "technology": "Fossil Fuel", "type": "CCGT", "fuel": "Natural Gas", "capacity": 408.0, "country": "England" }, "geometry": { "type": "Point", "coordinates": [ -0.089110982558998, 51.599496944849172 ] } },
{ "type": "Feature", "properties": { "company": "Uniper UK", "name": "Grain", "technology": "Fossil Fuel", "type": "CCGT", "fuel": "Natural Gas", "capacity": 1517.0, "country": "England" }, "geometry": { "type": "Point", "coordinates": [ 0.712305226763069, 51.423035746357485 ] } },
{ "type": "Feature", "properties": { "company": "Uniper UK", "name": "Taylors Lane", "technology": "Fossil Fuel", "type": "Single cycle", "fuel": "Diesel/Gas Oil", "capacity": 144.0, "country": "England" }, "geometry": { "type": "Point", "coordinates": [ -0.199605375695786, 51.640989760183018 ] } },
{ "type": "Feature", "properties": { "company": "Vattenfall", "name": "Thanet", "technology": "Wind", "type": "Offshore", "fuel": "Wind", "capacity": 300.0, "country": "England" }, "geometry": { "type": "Point", "coordinates": [ 1.633411389851763, 51.42993205828251 ] } },
{ "type": "Feature", "properties": { "company": "Vattenfall", "name": "Ormonde", "technology": "Wind", "type": "Offshore", "fuel": "Wind", "capacity": 150.0, "country": "England" }, "geometry": { "type": "Point", "coordinates": [ -3.438590299125097, 54.088871840612249 ] } },
{ "type": "Feature", "properties": { "company": "Vattenfall", "name": "Pen Y Cymoedd", "technology": "Wind", "type": "Onshore", "fuel": "Wind", "capacity": 228.0, "country": "Wales" }, "geometry": { "type": "Point", "coordinates": [ -3.550850153582294, 51.682795567003993 ] } },
{ "type": "Feature", "properties": { "company": "Vitol", "name": "Rye House", "technology": "Fossil Fuel", "type": "CCGT", "fuel": "Natural Gas", "capacity": 715.0, "country": "England" }, "geometry": { "type": "Point", "coordinates": [ 0.003866317408303, 51.769881898600843 ] } },
{ "type": "Feature", "properties": { "company": "Vitol", "name": "Damhead Creek", "technology": "Fossil Fuel", "type": "CCGT", "fuel": "Natural Gas", "capacity": 805.0, "country": "England" }, "geometry": { "type": "Point", "coordinates": [ 0.616260102937005, 51.428682517186658 ] } },
{ "type": "Feature", "properties": { "company": "Vitol", "name": "Shoreham", "technology": "Fossil Fuel", "type": "CCGT", "fuel": "Natural Gas", "capacity": 420.0, "country": "England" }, "geometry": { "type": "Point", "coordinates": [ -0.276211853894032, 50.832783357001915 ] } },
{ "type": "Feature", "properties": { "company": "Vitol", "name": "VPI", "technology": "Fossil Fuel", "type": "CCGT", "fuel": "Natural Gas", "capacity": 1252.0, "country": "England" }, "geometry": { "type": "Point", "coordinates": [ -0.215690315208554, 53.594767114243204 ] } }
]
}
